LEMUR-2-AMANDA-SVANTE   
1 48269U 21034B   26068.77637527  .00030872  00000+0  11134-2 0  9996
2 48269  97.5829 144.8625 0002703 205.4721 154.6385 15.28469003265849
STARLINK-31747          
1 59564U 24076A   26068.15734306 -.00002118  00000+0 -67479-4 0  9999
2 59564  43.0044   1.4223 0002300 246.2125 113.8486 15.27569115106533
