[{"OBJECT_NAME":"LEMUR-2-AMANDA-SVANTE","OBJECT_ID":"2021-034B","EPOCH":"2026-03-09T18:37:58.823328","MEAN_MOTION":15.28469003,"ECCENTRICITY":0.00027027,"INCLINATION":97.5829,"RA_OF_ASC_NODE":144.8625,"ARG_OF_PERICENTER":205.4721,"MEAN_ANOMALY":154.6385,"EPHEMERIS_TYPE":0,"CLASSIFICATION_TYPE":"U","NORAD_CAT_ID":48269,"ELEMENT_SET_NO":999,"REV_AT_EPOCH":26584,"BSTAR":0.0011134246,"MEAN_MOTION_DOT":0.00030872,"MEAN_MOTION_DDOT":0},{"OBJECT_NAME":"STARLINK-31747","OBJECT_ID":"2024-076A","EPOCH":"2026-03-09T03:46:34.440384","MEAN_MOTION":15.27569115,"ECCENTRICITY":0.00023006,"INCLINATION":43.0044,"RA_OF_ASC_NODE":1.4223,"ARG_OF_PERICENTER":246.2125,"MEAN_ANOMALY":113.8486,"EPHEMERIS_TYPE":0,"CLASSIFICATION_TYPE":"U","NORAD_CAT_ID":59564,"ELEMENT_SET_NO":999,"REV_AT_EPOCH":10653,"BSTAR":-6.7479256e-5,"MEAN_MOTION_DOT":-2.118e-5,"MEAN_MOTION_DDOT":0}]
